start=new Date('2022-09-14T00:00:00.000Z').valueOf();
sats=[{"OBJECT_ID":"2020-057AS","SITE":"AFETR","TLE_LINE1":"1 46157U 20057AS  22256.66167746  .00000477  00000-0  50901-4 0  9994","MEAN_MOTION_DOT":"0.00000477","APOAPSIS":"548.352","NORAD_CAT_ID":"46157","COUNTRY_CODE":"US","TLE_LINE2":"2 46157  53.0540 231.4771 0001647  64.9025 295.2135 15.06400822114754","CENTER_NAME":"EARTH","EPOCH":"2022-09-13T15:52:48.932544","MEAN_MOTION_DDOT":"0.0000000000000","GP_ID":"212531771","EPHEMERIS_TYPE":"0","RA_OF_ASC_NODE":"231.4771","CLASSIFICATION_TYPE":"U","MEAN_ANOMALY":"295.2135","LAUNCH_DATE":"2020-08-18","INCLINATION":"53.0540","OBJECT_TYPE":"PAYLOAD","FILE":"3573088","PERIOD":"95.592","PERIAPSIS":"546.070","REV_AT_EPOCH":"11475","ECCENTRICITY":"0.00016470","ELEMENT_SET_NO":"999","ARG_OF_PERICENTER":"64.9025","DECAY_DATE":null,"TIME_SYSTEM":"UTC","REF_FRAME":"TEME","SEMIMAJOR_AXIS":"6925.346","BSTAR":"0.00005090100000","OBJECT_NAME":"STARLINK-1587","MEAN_MOTION":"15.06400822","MEAN_ELEMENT_THEORY":"SGP4","RCS_SIZE":"LARGE"},{"INCLINATION":"53.0530","LAUNCH_DATE":"2020-08-18","PERIOD":"95.592","FILE":"3573107","OBJECT_TYPE":"PAYLOAD","RA_OF_ASC_NODE":"229.1068","MEAN_ANOMALY":"282.2232","CLASSIFICATION_TYPE":"U","MEAN_ELEMENT_THEORY":"SGP4","RCS_SIZE":"LARGE","ECCENTRICITY":"0.00014460","ELEMENT_SET_NO":"999","ARG_OF_PERICENTER":"77.8919","REV_AT_EPOCH":"11549","PERIAPSIS":"546.229","MEAN_MOTION":"15.06394552","SEMIMAJOR_AXIS":"6925.365","BSTAR":"0.00003714300000","OBJECT_NAME":"STARLINK-1589","REF_FRAME":"TEME","TIME_SYSTEM":"UTC","DECAY_DATE":null,"NORAD_CAT_ID":"46158","APOAPSIS":"548.232","MEAN_MOTION_DOT":"0.00000272","COUNTRY_CODE":"US","OBJECT_ID":"2020-057AT","SITE":"AFETR","TLE_LINE1":"1 46158U 20057AT  22257.18877487  .00000272  00000-0  37143-4 0  9999","EPOCH":"2022-09-14T04:31:50.148768","MEAN_MOTION_DDOT":"0.0000000000000","CENTER_NAME":"EARTH","EPHEMERIS_TYPE":"0","GP_ID":"212539043","TLE_LINE2":"2 46158  53.0530 229.1068 0001446  77.8919 282.2232 15.06394552115497"},{"GP_ID":"212486760","EPHEMERIS_TYPE":"0","CENTER_NAME":"EARTH","EPOCH":"2022-09-13T10:23:44.259360","MEAN_MOTION_DDOT":"0.0000000000000","TLE_LINE2":"2 46159  53.0549 272.5001 0001591  64.0308 296.0845 15.06398319115418","COUNTRY_CODE":"US","MEAN_MOTION_DOT":"0.00000875","APOAPSIS":"548.321","NORAD_CAT_ID":"46159","SITE":"AFETR","TLE_LINE1":"1 46159U 20057AU  22256.43315115  .00000875  00000-0  77640-4 0  9997","OBJECT_ID":"2020-057AU","RCS_SIZE":"LARGE","MEAN_ELEMENT_THEORY":"SGP4","TIME_SYSTEM":"UTC","DECAY_DATE":null,"SEMIMAJOR_AXIS":"6925.354","BSTAR":"0.00007764000000","OBJECT_NAME":"STARLINK-1595","REF_FRAME":"TEME","MEAN_MOTION":"15.06398319","PERIAPSIS":"546.117","REV_AT_EPOCH":"11541","ARG_OF_PERICENTER":"64.0308","ELEMENT_SET_NO":"999","ECCENTRICITY":"0.00015910","FILE":"3572069","OBJECT_TYPE":"PAYLOAD","PERIOD":"95.592","LAUNCH_DATE":"2020-08-18","INCLINATION":"53.0549","CLASSIFICATION_TYPE":"U","MEAN_ANOMALY":"296.0845","RA_OF_ASC_NODE":"272.5001"},{"TLE_LINE1":"1 46160U 20057AV  22256.42394743 -.00001195  00000-0 -61358-4 0  9999","SITE":"AFETR","OBJECT_ID":"2020-057AV","COUNTRY_CODE":"US","MEAN_MOTION_DOT":"-0.00001195","APOAPSIS":"548.111","NORAD_CAT_ID":"46160","TLE_LINE2":"2 46160  53.0542 252.5273 0001259  75.0422 285.0706 15.06391816115680","GP_ID":"212487003","EPHEMERIS_TYPE":"0","MEAN_MOTION_DDOT":"0.0000000000000","EPOCH":"2022-09-13T10:10:29.057952","CENTER_NAME":"EARTH","CLASSIFICATION_TYPE":"U","MEAN_ANOMALY":"285.0706","RA_OF_ASC_NODE":"252.5273","OBJECT_TYPE":"PAYLOAD","FILE":"3572069","PERIOD":"95.593","LAUNCH_DATE":"2020-08-18","INCLINATION":"53.0542","BSTAR":"-0.00006135800000","SEMIMAJOR_AXIS":"6925.374","OBJECT_NAME":"STARLINK-1598","REF_FRAME":"TEME","TIME_SYSTEM":"UTC","DECAY_DATE":null,"MEAN_MOTION":"15.06391816","PERIAPSIS":"546.367","ELEMENT_SET_NO":"999","ARG_OF_PERICENTER":"75.0422","ECCENTRICITY":"0.00012590","REV_AT_EPOCH":"11568","RCS_SIZE":"LARGE","MEAN_ELEMENT_THEORY":"SGP4"},{"TLE_LINE2":"2 46161  53.0545 252.6239 0001290  79.7277 280.3858 15.06397571115681","MEAN_MOTION_DDOT":"0.0000000000000","EPOCH":"2022-09-13T09:38:37.273056","CENTER_NAME":"EARTH","GP_ID":"212485260","EPHEMERIS_TYPE":"0","OBJECT_ID":"2020-057AW","SITE":"AFETR","TLE_LINE1":"1 46161U 20057AW  22256.40182029  .00000130  00000-0  27640-4 0  9992","MEAN_MOTION_DOT":"0.00000130","APOAPSIS":"548.114","NORAD_CAT_ID":"46161","COUNTRY_CODE":"US","PERIAPSIS":"546.328","ELEMENT_SET_NO":"999","ARG_OF_PERICENTER":"79.7277","ECCENTRICITY":"0.00012900","REV_AT_EPOCH":"11568","BSTAR":"0.00002764000000","SEMIMAJOR_AXIS":"6925.356","OBJECT_NAME":"STARLINK-1600","REF_FRAME":"TEME","DECAY_DATE":null,"TIME_SYSTEM":"UTC","MEAN_MOTION":"15.06397571","MEAN_ELEMENT_THEORY":"SGP4","RCS_SIZE":"LARGE","RA_OF_ASC_NODE":"252.6239","CLASSIFICATION_TYPE":"U","MEAN_ANOMALY":"280.3858","LAUNCH_DATE":"2020-08-18","INCLINATION":"53.0545","OBJECT_TYPE":"PAYLOAD","FILE":"3572069","PERIOD":"95.592"},{"MEAN_ANOMALY":"278.4930","CLASSIFICATION_TYPE":"U","RA_OF_ASC_NODE":"249.0526","PERIOD":"95.592","OBJECT_TYPE":"PAYLOAD","FILE":"3573112","INCLINATION":"53.0538","LAUNCH_DATE":"2020-08-18","MEAN_MOTION":"15.06398721","DECAY_DATE":null,"TIME_SYSTEM":"UTC","SEMIMAJOR_AXIS":"6925.352","OBJECT_NAME":"STARLINK-1603","BSTAR":"0.00000788730000","REF_FRAME":"TEME","REV_AT_EPOCH":"11522","ELEMENT_SET_NO":"999","ARG_OF_PERICENTER":"81.6219","ECCENTRICITY":"0.00014150","PERIAPSIS":"546.238","RCS_SIZE":"LARGE","MEAN_ELEMENT_THEORY":"SGP4","TLE_LINE1":"1 46162U 20057AX  22257.20167087 -.00000164  00000-0  78873-5 0  9992","SITE":"AFETR","OBJECT_ID":"2020-057AX","COUNTRY_CODE":"US","NORAD_CAT_ID":"46162","APOAPSIS":"548.197","MEAN_MOTION_DOT":"-0.00000164","TLE_LINE2":"2 46162  53.0538 249.0526 0001415  81.6219 278.4930 15.06398721115227","EPHEMERIS_TYPE":"0","GP_ID":"212539127","CENTER_NAME":"EARTH","MEAN_MOTION_DDOT":"0.0000000000000","EPOCH":"2022-09-14T04:50:24.363168"},{"INCLINATION":"53.0556","LAUNCH_DATE":"2020-08-18","PERIOD":"95.593","FILE":"3573113","OBJECT_TYPE":"PAYLOAD","RA_OF_ASC_NODE":"229.0425","MEAN_ANOMALY":"284.1007","CLASSIFICATION_TYPE":"U","MEAN_ELEMENT_THEORY":"SGP4","RCS_SIZE":"LARGE","REV_AT_EPOCH":"11549","ELEMENT_SET_NO":"999","ECCENTRICITY":"0.00014490","ARG_OF_PERICENTER":"76.0143","PERIAPSIS":"546.233","MEAN_MOTION":"15.06392454","TIME_SYSTEM":"UTC","DECAY_DATE":null,"SEMIMAJOR_AXIS":"6925.372","BSTAR":"0.00002363800000","OBJECT_NAME":"STARLINK-1610","REF_FRAME":"TEME","NORAD_CAT_ID":"46163","MEAN_MOTION_DOT":"0.00000071","APOAPSIS":"548.240","COUNTRY_CODE":"US","OBJECT_ID":"2020-057AY","TLE_LINE1":"1 46163U 20057AY  22257.19982925  .00000071  00000-0  23638-4 0  9991","SITE":"AFETR","CENTER_NAME":"EARTH","MEAN_MOTION_DDOT":"0.0000000000000","EPOCH":"2022-09-14T04:47:45.247200","EPHEMERIS_TYPE":"0","GP_ID":"212539144","TLE_LINE2":"2 46163  53.0556 229.0425 0001449  76.0143 284.1007 15.06392454115490"},{"COUNTRY_CODE":"US","MEAN_MOTION_DOT":"0.00001334","APOAPSIS":"548.319","NORAD_CAT_ID":"46164","SITE":"AFETR","TLE_LINE1":"1 46164U 20057AZ  22257.19613930  .00001334  00000-0  10841-3 0  9993","OBJECT_ID":"2020-057AZ","GP_ID":"212539472","EPHEMERIS_TYPE":"0","MEAN_MOTION_DDOT":"0.0000000000000","EPOCH":"2022-09-14T04:42:26.435520","CENTER_NAME":"EARTH","TLE_LINE2":"2 46164  53.0530 229.0520 0001604  73.3566 286.7599 15.06401601115490","OBJECT_TYPE":"PAYLOAD","FILE":"3573113","PERIOD":"95.592","LAUNCH_DATE":"2020-08-18","INCLINATION":"53.0530","CLASSIFICATION_TYPE":"U","MEAN_ANOMALY":"286.7599","RA_OF_ASC_NODE":"229.0520","RCS_SIZE":"LARGE","MEAN_ELEMENT_THEORY":"SGP4","SEMIMAJOR_AXIS":"6925.344","BSTAR":"0.00010841000000","REF_FRAME":"TEME","OBJECT_NAME":"STARLINK-1612","DECAY_DATE":null,"TIME_SYSTEM":"UTC","MEAN_MOTION":"15.06401601","PERIAPSIS":"546.098","ECCENTRICITY":"0.00016040","ELEMENT_SET_NO":"999","ARG_OF_PERICENTER":"73.3566","REV_AT_EPOCH":"11549"},{"SITE":"AFETR","TLE_LINE1":"1 46165U 20057BA  22256.73667986  .00015523  00000-0  81894-3 0  9994","OBJECT_ID":"2020-057BA","COUNTRY_CODE":"US","NORAD_CAT_ID":"46165","MEAN_MOTION_DOT":"0.00015523","APOAPSIS":"520.112","TLE_LINE2":"2 46165  53.0516 262.6826 0001969  95.9170 264.2048 15.15733632114325","EPHEMERIS_TYPE":"0","GP_ID":"212531772","CENTER_NAME":"EARTH","EPOCH":"2022-09-13T17:40:49.139904","MEAN_MOTION_DDOT":"0.0000000000000","MEAN_ANOMALY":"264.2048","CLASSIFICATION_TYPE":"U","RA_OF_ASC_NODE":"262.6826","PERIOD":"95.003","FILE":"3573088","OBJECT_TYPE":"PAYLOAD","INCLINATION":"53.0516","LAUNCH_DATE":"2020-08-18","MEAN_MOTION":"15.15733632","TIME_SYSTEM":"UTC","DECAY_DATE":null,"SEMIMAJOR_AXIS":"6896.889","BSTAR":"0.00081894000000","REF_FRAME":"TEME","OBJECT_NAME":"STARLINK-1613","REV_AT_EPOCH":"11432","ELEMENT_SET_NO":"999","ARG_OF_PERICENTER":"95.9170","ECCENTRICITY":"0.00019690","PERIAPSIS":"517.396","RCS_SIZE":"LARGE","MEAN_ELEMENT_THEORY":"SGP4"},{"NORAD_CAT_ID":"46166","APOAPSIS":"548.229","MEAN_MOTION_DOT":"0.00001156","COUNTRY_CODE":"US","OBJECT_ID":"2020-057BB","SITE":"AFETR","TLE_LINE1":"1 46166U 20057BB  22256.78331962  .00001156  00000-0  96505-4 0  9995","CENTER_NAME":"EARTH","MEAN_MOTION_DDOT":"0.0000000000000","EPOCH":"2022-09-13T18:47:58.815168","EPHEMERIS_TYPE":"0","GP_ID":"212502243","TLE_LINE2":"2 46166  53.0550 270.9225 0001442  89.7919 270.3235 15.06394541114875","INCLINATION":"53.0550","LAUNCH_DATE":"2020-08-18","PERIOD":"95.592","OBJECT_TYPE":"PAYLOAD","FILE":"3572561","RA_OF_ASC_NODE":"270.9225","MEAN_ANOMALY":"270.3235","CLASSIFICATION_TYPE":"U","MEAN_ELEMENT_THEORY":"SGP4","RCS_SIZE":"LARGE","REV_AT_EPOCH":"11487","ELEMENT_SET_NO":"999","ARG_OF_PERICENTER":"89.7919","ECCENTRICITY":"0.00014420","PERIAPSIS":"546.232","MEAN_MOTION":"15.06394541","TIME_SYSTEM":"UTC","DECAY_DATE":null,"SEMIMAJOR_AXIS":"6925.365","BSTAR":"0.00009650500000","REF_FRAME":"TEME","OBJECT_NAME":"STARLINK-1615"}];
